NORAD_CAT_ID,OBJECT_NAME,OBJECT_TYPE,EPOCH,MEAN_MOTION,ECCENTRICITY,INCLINATION,RA_OF_ASC_NODE,ARG_OF_PERICENTER,MEAN_ANOMALY,BSTAR,MEAN_MOTION_DOT,MEAN_MOTION_DDOT,TLE_LINE0,TLE_LINE1,TLE_LINE2,SEMIMAJOR_AXIS,PERIOD,APOGEE,PERIGEE,DECAYED
52115.0,STARLINK-3685,PAYLOAD,2022-07-05 14:00:01,15.08868848,0.0001486,53.2161,348.5418,63.7792,297.4703,-0.0035643,-0.00056613,0.0,0 STARLINK-3685,1 52115U 22029AD  22186.58334491 -.00056613  00000-0 -35643-2 0  9991,2 52115  53.2161 348.5418 0001486  63.7792 297.4703 15.08868848 18029,6917.792,95.436,540.685,538.629,0.0
52115.0,STARLINK-3685,PAYLOAD,2022-07-05 22:00:00,15.08821433,0.0001621,53.2159,347.0466,57.2293,315.6245,0.0015409,0.00024308,0.0,0 STARLINK-3685,1 52115U 22029AD  22186.91667824  .00024308  00000-0  15409-2 0  9999,2 52115  53.2159 347.0466 0001621  57.2293 315.6245 15.08821433  1304,6917.937,95.439,540.924,538.681,0.0
52115.0,STARLINK-3685,PAYLOAD,2022-07-06 06:00:00,15.08803605,0.0001563,53.2162,345.5484,65.6777,318.7703,0.00090922,0.00014197,0.0,0 STARLINK-3685,1 52115U 22029AD  22187.25001157  .00014197  00000-0  90922-3 0  9997,2 52115  53.2162 345.5484 0001563  65.6777 318.7703 15.08803605 18128,6917.9919999999975,95.44,540.938,538.775,0.0
52115.0,STARLINK-3685,PAYLOAD,2022-07-06 14:00:01,15.08832409,0.0001682,53.2164,344.0528,65.3389,330.6623,-0.0016449,-0.00026366,0.0,0 STARLINK-3685,1 52115U 22029AD  22187.58334491 -.00026366  00000-0 -16449-2 0  9997,2 52115  53.2164 344.0528 0001682  65.3389 330.6623 15.08832409  1301,6917.904,95.438,540.932,538.605,0.0
52115.0,STARLINK-3685,PAYLOAD,2022-07-06 22:00:00,15.08804395,0.0001735,53.2162,342.5575,58.6519,348.9262,0.002474,0.00039267,0.0,0 STARLINK-3685,1 52115U 22029AD  22187.91667824  .00039267  00000-0  24740-2 0  9998,2 52115  53.2162 342.5575 0001735  58.6519 348.9262 15.08804395  1307,6917.989000000001,95.44,541.054,538.654,0.0
52115.0,STARLINK-3685,PAYLOAD,2022-07-07 06:00:02,15.08807806,0.0001598,53.2164,341.0592,66.2998,352.9226,0.0024988,0.0003967,0.0,0 STARLINK-3685,1 52115U 22029AD  22188.25002315  .00039670  00000-0  24988-2 0  9996,2 52115  53.2164 341.0592 0001598  66.2998 352.9226 15.08807806 18274,6917.979,95.44,540.9490000000002,538.738,0.0
52115.0,STARLINK-3685,PAYLOAD,2022-07-07 14:00:01,15.08849116,0.0001694,53.2165,339.5638,64.9657,5.7612,-0.0017285999999999,-0.000277,0.0,0 STARLINK-3685,1 52115U 22029AD  22188.58334491 -.00027700  00000-0 -17286-2 0  9991,2 52115  53.2165 339.5638 0001694  64.9657   5.7612 15.08849116  1300,6917.853,95.437,540.889,538.5459999999998,0.0
52115.0,STARLINK-3685,PAYLOAD,2022-07-07 22:00:00,15.08824808,0.0001734,53.2162,338.0686,58.3596,23.9625,0.002022,0.00032025,0.0,0 STARLINK-3685,1 52115U 22029AD  22188.91667824  .00032025  00000-0  20220-2 0  9993,2 52115  53.2162 338.0686 0001734  58.3596  23.9625 15.08824808 18370,6917.927,95.439,540.991,538.592,0.0
52115.0,STARLINK-3685,PAYLOAD,2022-07-08 13:32:04,15.08830913,0.0001623,53.2174,335.16,67.1435,292.9728,0.00011145,1.486e-05,0.0,0 STARLINK-3685,1 52115U 22029AD  22189.56394512  .00001486  00000-0  11145-3 0  9990,2 52115  53.2174 335.1600 0001623  67.1435 292.9728 15.08830913 18471,6917.908,95.438,540.896,538.65,0.0
52115.0,STARLINK-3685,PAYLOAD,2022-07-08 22:00:01,15.08822703,0.0001504,53.2159,333.5787,53.4292,63.777,0.0021336,0.00033815,0.0,0 STARLINK-3685,1 52115U 22029AD  22189.91668981  .00033815  00000-0  21336-2 0  9996,2 52115  53.2159 333.5787 0001504  53.4292  63.7770 15.08822703  1302,6917.933000000001,95.439,540.839,538.758,0.0
52115.0,STARLINK-3685,PAYLOAD,2022-07-09 06:00:00,15.08815432,0.0001356,53.216,332.0806,63.6853,65.0425,0.0001932,2.786e-05,0.0,0 STARLINK-3685,1 52115U 22029AD  22190.25001157  .00002786  00000-0  19320-3 0  9995,2 52115  53.2160 332.0806 0001356  63.6853  65.0425 15.08815432 18571,6917.955,95.439,540.759,538.882,0.0
52115.0,STARLINK-3685,PAYLOAD,2022-07-09 14:00:01,15.08831971,0.0001453,53.2161,330.5854,62.1178,78.1694,-0.0045201999999999,-0.00071497,0.0,0 STARLINK-3685,1 52115U 22029AD  22190.58334491 -.00071497  00000-0 -45202-2 0  9995,2 52115  53.2161 330.5854 0001453  62.1178  78.1694 15.08831971  1302,6917.905,95.438,540.775,538.765,0.0
52115.0,STARLINK-3685,PAYLOAD,2022-07-09 20:00:01,15.08759493,0.0001491,53.2158,329.4639,56.63800000000001,2.3269,0.0038958,0.00062123,0.0,0 STARLINK-3685,1 52115U 22029AD  22190.83334491  .00062123  00000-0  38958-2 0  9997,2 52115  53.2158 329.4639 0001491  56.6380   2.3269 15.08759493  1306,6918.126,95.443,541.023,538.96,0.0
52115.0,STARLINK-3685,PAYLOAD,2022-07-10 14:00:01,15.08841648,0.0001517,53.2156,326.0963,63.4015,111.5474,-0.0012475,-0.00020088,0.0,0 STARLINK-3685,1 52115U 22029AD  22191.58334491 -.00020088  00000-0 -12475-2 0  9992,2 52115  53.2156 326.0963 0001517  63.4015 111.5474 15.08841648 18771,6917.875,95.437,540.79,538.691,0.0
52115.0,STARLINK-3685,PAYLOAD,2022-07-10 22:00:00,15.08837814,0.0001547,53.2152,324.6001,58.3308,128.2036,0.00046805,7.168e-05,0.0,0 STARLINK-3685,1 52115U 22029AD  22191.91667824  .00007168  00000-0  46805-3 0  9995,2 52115  53.2152 324.6001 0001547  58.3308 128.2036 15.08837814  1305,6917.887,95.438,540.822,538.682,0.0
52115.0,STARLINK-3685,PAYLOAD,2022-07-11 06:00:00,15.0882652,0.0001424,53.2152,323.1019,66.5083,131.6338,0.0029524,0.00046996,0.0,0 STARLINK-3685,1 52115U 22029AD  22192.25001157  .00046996  00000-0  29524-2 0  9994,2 52115  53.2152 323.1019 0001424  66.5083 131.6338 15.08826520 18878,6917.922,95.438,540.7719999999998,538.8009999999998,0.0
52115.0,STARLINK-3685,PAYLOAD,2022-07-11 14:00:01,15.08861629,0.0001546,53.2154,321.607,62.5338,147.2065,-0.00084552,-0.00013727,0.0,0 STARLINK-3685,1 52115U 22029AD  22192.58334491 -.00013727  00000-0 -84552-3 0  9991,2 52115  53.2154 321.6070 0001546  62.5338 147.2065 15.08861629  1303,6917.814,95.436,540.749,538.61,0.0
52115.0,STARLINK-3685,PAYLOAD,2022-07-11 22:00:00,15.08879259,0.0001595,53.2151,320.1105,58.8005,162.5506,-0.0026376,-0.00042066,0.0,0 STARLINK-3685,1 52115U 22029AD  22192.91667824 -.00042066  00000-0 -26376-2 0  9994,2 52115  53.2151 320.1105 0001595  58.8005 162.5506 15.08879259 18975,6917.76,95.435,540.729,538.5219999999998,0.0
52115.0,STARLINK-3685,PAYLOAD,2022-07-12 14:00:01,15.08870124,0.0001665999999999,53.2155,317.1176,61.7749,182.8208,-0.0007817999999999,-0.00012719,0.0,0 STARLINK-3685,1 52115U 22029AD  22193.58334491 -.00012719  00000-0 -78180-3 0  9992,2 52115  53.2155 317.1176 0001666  61.7749 182.8208 15.08870124 19078,6917.788000000001,95.436,540.806,538.501,0.0
52115.0,STARLINK-3685,PAYLOAD,2022-07-12 22:00:00,15.0887911,0.0001614,53.2154,315.621,56.8319,199.3905,-0.0022046,-0.00035241,0.0,0 STARLINK-3685,1 52115U 22029AD  22193.91667824 -.00035241  00000-0 -22046-2 0  9992,2 52115  53.2154 315.6210 0001614  56.8319 199.3905 15.08879110  1308,6917.761,95.435,540.742,538.509,0.0
52115.0,STARLINK-3685,PAYLOAD,2022-07-13 14:00:01,15.08852219,0.0001682,53.2158,312.6282,60.1353,219.3185,-0.0018153,-0.00029072,0.0,0 STARLINK-3685,1 52115U 22029AD  22194.58334491 -.00029072  00000-0 -18153-2 0  9996,2 52115  53.2158 312.6282 0001682  60.1353 219.3185 15.08852219  1303,6917.843000000003,95.437,540.872,538.544,0.0
52115.0,STARLINK-3685,PAYLOAD,2022-07-13 22:00:00,15.08854997,0.0001547,53.2159,311.1317,54.5252,236.5244,-0.0052973,-0.00083651,0.0,0 STARLINK-3685,1 52115U 22029AD  22194.91667824 -.00083651  00000-0 -52973-2 0  9993,2 52115  53.2159 311.1317 0001547  54.5252 236.5244 15.08854997 19279,6917.835,95.437,540.77,538.629,0.0
52115.0,STARLINK-3685,PAYLOAD,2022-07-14 14:00:01,15.08806034,0.0001534,53.2162,308.1394,54.583,259.5835,-0.00040571,-6.733e-05,0.0,0 STARLINK-3685,1 52115U 22029AD  22195.58334491 -.00006733  00000-0 -40571-3 0  9996,2 52115  53.2162 308.1394 0001534  54.5830 259.5835 15.08806034 19373,6917.984,95.44,540.91,538.788,0.0
52115.0,STARLINK-3685,PAYLOAD,2022-07-14 22:00:00,15.08829747,0.0001495,53.2161,306.6429,52.0456,273.6724,-0.001321,-0.00021244,0.0,0 STARLINK-3685,1 52115U 22029AD  22195.91667824 -.00021244  00000-0 -13210-2 0  9995,2 52115  53.2161 306.6429 0001495  52.0456 273.6724 15.08829747  1301,6917.9119999999975,95.438,540.811,538.743,0.0
52115.0,STARLINK-3685,PAYLOAD,2022-07-15 06:00:00,15.08806557,0.000139,53.2164,305.1453,60.5402,276.755,0.0030336,0.00048278,0.0,0 STARLINK-3685,1 52115U 22029AD  22196.25001157  .00048278  00000-0  30336-2 0  9996,2 52115  53.2164 305.1453 0001390  60.5402 276.7550 15.08806557 19487,6917.983,95.44,540.809,538.886,0.0
52115.0,STARLINK-3685,PAYLOAD,2022-07-15 14:00:01,15.08838464,0.0001538,53.2162,303.6508,53.4055,295.4695,-7.100699999999999e-05,-1.418e-05,0.0,0 STARLINK-3685,1 52115U 22029AD  22196.58334491 -.00001418  00000-0 -71007-4 0  9991,2 52115  53.2162 303.6508 0001538  53.4055 295.4695 15.08838464  1300,6917.885,95.438,540.814,538.686,0.0
52115.0,STARLINK-3685,PAYLOAD,2022-07-15 22:00:00,15.08862845,0.0001479,53.2159,302.1539,51.8319,308.6316,-0.001411,-0.00022688,0.0,0 STARLINK-3685,1 52115U 22029AD  22196.91667824 -.00022688  00000-0 -14110-2 0  9999,2 52115  53.2159 302.1539 0001479  51.8319 308.6316 15.08862845 19589,6917.811,95.436,540.6990000000002,538.6519999999998,0.0
52115.0,STARLINK-3685,PAYLOAD,2022-07-16 14:00:01,15.08858538,0.0001449,53.2158,299.1618,51.0885,332.6149,-0.0015295,-0.0002456,0.0,0 STARLINK-3685,1 52115U 22029AD  22197.58334491 -.00024560  00000-0 -15295-2 0  9990,2 52115  53.2158 299.1618 0001449  51.0885 332.6149 15.08858538 19684,6917.824000000001,95.436,540.691,538.686,0.0
52115.0,STARLINK-3685,PAYLOAD,2022-07-16 22:00:00,15.08884798,0.000139,53.2154,297.6647,49.4195,345.8941,-0.003327,-0.00052913,0.0,0 STARLINK-3685,1 52115U 22029AD  22197.91667824 -.00052913  00000-0 -33270-2 0  9992,2 52115  53.2154 297.6647 0001390  49.4195 345.8941 15.08884798 19734,6917.743,95.435,540.57,538.6469999999998,0.0
